STARLINK-36739          
1 67802U 26032F   26064.91668981  .00031810  00000+0  21366-3 0  9995
2 67802  97.2843 251.2681 0001571 106.3714 223.0557 15.75154978  4177
STARLINK-36768          
1 67803U 26032G   26064.91668981 -.00015622  00000+0 -10411-3 0  9990
2 67803  97.2843 251.2377 0001357  83.1433 176.2936 15.75178192  4176
STARLINK-36792          
1 67804U 26032H   26064.93693262  .00151741  00000+0  99844-3 0  9991
2 67804  97.2844 251.2537 0001376  84.3978 275.7445 15.75231649  4193
STARLINK-36782          
1 67805U 26032J   26064.97979806  .00204674  00000+0  10413-2 0  9995
2 67805  97.2826 251.3486 0002510  71.4121 288.7420 15.80879256  4203
STARLINK-36389          
1 67806U 26032K   26064.91668981  .00159608  00000+0  10546-2 0  9992
2 67806  97.2837 251.2599 0001609  88.8135 220.6259 15.75111244  4176
STARLINK-36382          
1 67807U 26032L   26064.91668981 -.00074335  00000+0 -50132-3 0  9994
2 67807  97.2838 251.2632 0001560 108.4376 212.9852 15.75213157  4111
STARLINK-36811          
1 67808U 26032M   26064.91668981 -.01796708  00000+0 -12434-1 0  9992
2 67808  97.2841 251.2874 0001681  80.0197 295.2305 15.77399873  4179
STARLINK-36795          
1 67809U 26032N   26064.93057791  .00219186  00000+0  14282-2 0  9997
2 67809  97.2837 251.2614 0001453  53.9416 306.1984 15.75267664  4194
STARLINK-36807          
1 67810U 26032P   26064.91668981  .00219942  00000+0  14431-2 0  9992
2 67810  97.2843 251.2849 0001951  95.6669 275.7716 15.75103536  4178
STARLINK-36733          
1 67811U 26032Q   26064.97318538  .00234268  00000+0  11877-2 0  9998
2 67811  97.2819 251.3561 0003848  63.5041 296.6622 15.80875824  4203
STARLINK-36377          
1 67812U 26032R   26064.97000835  .00071164  00000+0  36884-3 0  9997
2 67812  97.2824 251.3605 0001700  97.3061 262.8400 15.80839211  4200
STARLINK-36732          
1 67813U 26032S   26064.71806517 -.00229017  00000+0 -12979-2 0  9993
2 67813  97.2825 251.0897 0003144  57.3673 302.7897 15.79562466  4163
